[{"OBJECT_NAME":"OBJECT M","OBJECT_ID":"2024-205M","EPOCH":"2026-03-09T22:23:47.520096","MEAN_MOTION":15.27663844,"ECCENTRICITY":0.00036602,"INCLINATION":97.3915,"RA_OF_ASC_NODE":144.193,"ARG_OF_PERICENTER":310.2554,"MEAN_ANOMALY":49.8364,"EPHEMERIS_TYPE":0,"CLASSIFICATION_TYPE":"U","NORAD_CAT_ID":61905,"ELEMENT_SET_NO":999,"REV_AT_EPOCH":7334,"BSTAR":0.00036391974,"MEAN_MOTION_DOT":9.771e-5,"MEAN_MOTION_DDOT":0},{"OBJECT_NAME":"STARLINK-35437","OBJECT_ID":"2025-268G","EPOCH":"2026-03-09T04:25:19.225920","MEAN_MOTION":15.27591418,"ECCENTRICITY":0.0002268,"INCLINATION":43.0025,"RA_OF_ASC_NODE":349.8196,"ARG_OF_PERICENTER":262.1517,"MEAN_ANOMALY":97.9078,"EPHEMERIS_TYPE":0,"CLASSIFICATION_TYPE":"U","NORAD_CAT_ID":66563,"ELEMENT_SET_NO":999,"REV_AT_EPOCH":1788,"BSTAR":0.001175914,"MEAN_MOTION_DOT":0.0003225,"MEAN_MOTION_DDOT":0}]
